{
  "norad_id": 68711,
  "name": "STARLINK-37320",
  "history": [
    {
      "epoch": "2026-04-23T17:01:52.610016Z",
      "apogee_km": 319.72887279103816,
      "perigee_km": 316.1049684092095,
      "latitude_deg": -4.6033684508335137e-05,
      "longitude_deg": 87.9994857927999,
      "height_km": 317.42542242536695,
      "semi_major_axis_km": 6696.053920600124,
      "eccentricity": 0.0002706,
      "inclination_deg": 53.1601,
      "raan_deg": 195.2217,
      "arg_perigee_deg": 38.9039,
      "mean_anomaly_deg": 321.2179,
      "mean_motion_rev_day": 15.84434713
    }
  ]
}