STARLINK-37320          
1 68711U 26081N   26113.70963669 -.00745406  00000+0 -34699-2 0  9999
2 68711  53.1601 195.2217 0002706  38.9039 321.2179 15.84434713  1494
